{"type":"FeatureCollection","features":[{"type":"Feature","geometry":{"type":"Point","coordinates":[110.37749727415533,-7.73859986861765]},"id":"1_1_1_0","properties":{"landcover":0,"random":0.7570301666717334}},{"type":"Feature","geometry":{"type":"Point","coordinates":[110.3773846213767,-7.739158002333183]},"id":"1_1_1_1","properties":{"landcover":0,"random":0.4592457925271197}},{"type":"Feature","geometry":{"type":"Point","coordinates":[110.38003442587399,-7.739254127470503]},"id":"1_1_1_2","properties":{"landcover":0,"random":0.3157461986775023}},{"type":"Feature","geometry":{"type":"Point","coordinates":[110.38083020013423,-7.739349807440012]},"id":"1_1_1_3","properties":{"landcover":0,"random":0.7824890820991699}},{"type":"Feature","geometry":{"type":"Point","coordinates":[110.38054588597865,-7.7391743941459845]},"id":"1_1_1_4","properties":{"landcover":0,"random":0.03541736365129977}},{"type":"Feature","geometry":{"type":"Point","coordinates":[110.38173862271515,-7.739780705754854]},"id":"1_1_1_5","properties":{"landcover":0,"random":0.5964881961697339}},{"type":"Feature","geometry":{"type":"Point","coordinates":[110.38515761473928,-7.752764965696428]},"id":"1_1_1_6","properties":{"landcover":0,"random":0.37329765256116976}},{"type":"Feature","geometry":{"type":"Point","coordinates":[110.38460481670397,-7.752244057745049]},"id":"1_1_1_7","properties":{"landcover":0,"random":0.9380689441993378}},{"type":"Feature","geometry":{"type":"Point","coordinates":[110.3910250738636,-7.75501679741988]},"id":"1_1_1_8","properties":{"landcover":0,"random":0.9573365494666791}},{"type":"Feature","geometry":{"type":"Point","coordinates":[110.38851452622566,-7.75510184309966]},"id":"1_1_1_9","properties":{"landcover":0,"random":0.6560180523888728}},{"type":"Feature","geometry":{"type":"Point","coordinates":[110.38735581193122,-7.754846706008717]},"id":"1_1_1_10","properties":{"landcover":0,"random":0.21301533208643963}},{"type":"Feature","geometry":{"type":"Point","coordinates":[110.39387894425543,-7.752784342177307]},"id":"1_1_1_11","properties":{"landcover":0,"random":0.1461687631711699}},{"type":"Feature","geometry":{"type":"Point","coordinates":[110.39167953286322,-7.755558963334016]},"id":"1_1_1_12","properties":{"landcover":0,"random":0.1765954091208809}},{"type":"Feature","geometry":{"type":"Point","coordinates":[110.39619285555081,-7.755222441341351]},"id":"1_1_1_13","properties":{"landcover":0,"random":0.22196603579760132}},{"type":"Feature","geometry":{"type":"Point","coordinates":[110.39744876831845,-7.757828222413661]},"id":"1_1_1_14","properties":{"landcover":0,"random":0.6403561664568407}},{"type":"Feature","geometry":{"type":"Point","coordinates":[110.39906882256345,-7.758827501386272]},"id":"1_1_1_15","properties":{"landcover":0,"random":0.758637778343244}},{"type":"Feature","geometry":{"type":"Point","coordinates":[110.39886269321109,-7.761429014908344]},"id":"1_1_1_16","properties":{"landcover":0,"random":0.2267127795296855}},{"type":"Feature","geometry":{"type":"Point","coordinates":[110.39785418262149,-7.762279457964944]},"id":"1_1_1_17","properties":{"landcover":0,"random":0.6304466565980269}},{"type":"Feature","geometry":{"type":"Point","coordinates":[110.40175947894718,-7.760482894986165]},"id":"1_1_1_18","properties":{"landcover":0,"random":0.12588147915232195}},{"type":"Feature","geometry":{"type":"Point","coordinates":[110.40620734524306,-7.764721678036185]},"id":"1_1_1_19","properties":{"landcover":0,"random":0.36624910415171286}},{"type":"Feature","geometry":{"type":"Point","coordinates":[110.39928530933987,-7.766604225687715]},"id":"1_1_1_20","properties":{"landcover":0,"random":0.08618142635784509}},{"type":"Feature","geometry":{"type":"Point","coordinates":[110.3961993769319,-7.765050842885255]},"id":"1_1_1_21","properties":{"landcover":0,"random":0.15374080252853028}},{"type":"Feature","geometry":{"type":"Point","coordinates":[110.3903307036073,-7.764242927349956]},"id":"1_1_1_22","properties":{"landcover":0,"random":0.33190364594365307}},{"type":"Feature","geometry":{"type":"Point","coordinates":[110.3864624771934,-7.7670211319010924]},"id":"1_1_1_23","properties":{"landcover":0,"random":0.06998435221836619}},{"type":"Feature","geometry":{"type":"Point","coordinates":[110.38333278380428,-7.764235955905217]},"id":"1_1_1_24","properties":{"landcover":0,"random":0.6172950488040987}},{"type":"Feature","geometry":{"type":"Point","coordinates":[110.3792064050573,-7.654289536845476]},"id":"1_1_1_25","properties":{"landcover":0,"random":0.8885096157029873}},{"type":"Feature","geometry":{"type":"Point","coordinates":[110.39731749279531,-7.660988425243388]},"id":"1_1_1_26","properties":{"landcover":0,"random":0.48692846788615096}},{"type":"Feature","geometry":{"type":"Point","coordinates":[110.40411957485708,-7.658798006656479]},"id":"1_1_1_27","properties":{"landcover":0,"random":0.015841293945909496}},{"type":"Feature","geometry":{"type":"Point","coordinates":[110.40776737911733,-7.6594997924784]},"id":"1_1_1_28","properties":{"landcover":0,"random":0.12230632730667057}},{"type":"Feature","geometry":{"type":"Point","coordinates":[110.39615877850088,-7.656862773098625]},"id":"1_1_1_29","properties":{"landcover":0,"random":0.7854948556900919}},{"type":"Feature","geometry":{"type":"Point","coordinates":[110.40257462246448,-7.659244597767816]},"id":"1_1_1_30","properties":{"landcover":0,"random":0.012588475575544766}},{"type":"Feature","geometry":{"type":"Point","coordinates":[110.40531019632054,-7.6575007631547125]},"id":"1_1_1_31","properties":{"landcover":0,"random":0.37603595361670006}},{"type":"Feature","geometry":{"type":"Point","coordinates":[110.40428022805882,-7.653396343770775]},"id":"1_1_1_32","properties":{"landcover":0,"random":0.002089720842040843}},{"type":"Feature","geometry":{"type":"Point","coordinates":[110.37602976601606,-7.6862011669982016]},"id":"1_1_1_33","properties":{"landcover":0,"random":0.9767120899203742}},{"type":"Feature","geometry":{"type":"Point","coordinates":[110.38959101479534,-7.6856270147320656]},"id":"1_1_1_34","properties":{"landcover":0,"random":0.18384066422497736}},{"type":"Feature","geometry":{"type":"Point","coordinates":[110.3852780226994,-7.686392550914362]},"id":"1_1_1_35","properties":{"landcover":0,"random":0.21262893393772742}},{"type":"Feature","geometry":{"type":"Point","coordinates":[110.3881426154731,-7.687403349632985]},"id":"1_1_1_36","properties":{"landcover":0,"random":0.5853987002141597}},{"type":"Feature","geometry":{"type":"Point","coordinates":[110.33255105631808,-7.698846271099689]},"id":"1_1_1_37","properties":{"landcover":0,"random":0.8714232905279958}},{"type":"Feature","geometry":{"type":"Point","coordinates":[110.33008342402438,-7.698442250148324]},"id":"1_1_1_38","properties":{"landcover":0,"random":0.03554126067948338}},{"type":"Feature","geometry":{"type":"Point","coordinates":[110.32437533070633,-7.698541366947857]},"id":"1_1_1_39","properties":{"landcover":0,"random":0.4033547850517958}},{"type":"Feature","geometry":{"type":"Point","coordinates":[110.32154456207451,-7.695722842046213]},"id":"1_1_1_40","properties":{"landcover":0,"random":0.7012289916090817}},{"type":"Feature","geometry":{"type":"Point","coordinates":[110.29045923758895,-7.7660596486016]},"id":"1_1_1_41","properties":{"landcover":0,"random":0.41648938668804547}},{"type":"Feature","geometry":{"type":"Point","coordinates":[110.286682687296,-7.7679518612049]},"id":"1_1_1_42","properties":{"landcover":0,"random":0.0043818259489925016}},{"type":"Feature","geometry":{"type":"Point","coordinates":[110.28030926576407,-7.763189422205429]},"id":"1_1_1_43","properties":{"landcover":0,"random":0.6522719716384631}},{"type":"Feature","geometry":{"type":"Point","coordinates":[110.27344281068595,-7.762679157682648]},"id":"1_1_1_44","properties":{"landcover":0,"random":0.5778998348390257}},{"type":"Feature","geometry":{"type":"Point","coordinates":[110.25783373097691,-7.760613381074974]},"id":"1_1_1_45","properties":{"landcover":0,"random":0.6471391968874577}},{"type":"Feature","geometry":{"type":"Point","coordinates":[110.29237653755698,-7.762186841927194]},"id":"1_1_1_46","properties":{"landcover":0,"random":0.7253443455930892}},{"type":"Feature","geometry":{"type":"Point","coordinates":[110.46316366482418,-7.764515504450709]},"id":"1_1_1_47","properties":{"landcover":0,"random":0.8799329150961029}},{"type":"Feature","geometry":{"type":"Point","coordinates":[110.4714274154939,-7.75616528775285]},"id":"1_1_1_48","properties":{"landcover":0,"random":0.4574695512421878}},{"type":"Feature","geometry":{"type":"Point","coordinates":[110.47033307421583,-7.754889603975422]},"id":"1_1_1_49","properties":{"landcover":0,"random":0.33576700785662505}},{"type":"Feature","geometry":{"type":"Point","coordinates":[110.38270111963817,-7.7387876332153995]},"id":"1_1_2_0","properties":{"landcover":1,"random":0.8757284115386501}},{"type":"Feature","geometry":{"type":"Point","coordinates":[110.3830377918242,-7.7440057775625695]},"id":"1_1_2_1","properties":{"landcover":1,"random":0.42425315057444946}},{"type":"Feature","geometry":{"type":"Point","coordinates":[110.38863605104423,-7.7510963897451415]},"id":"1_1_2_2","properties":{"landcover":1,"random":0.8214147706238731}},{"type":"Feature","geometry":{"type":"Point","coordinates":[110.38602894388175,-7.749289148151816]},"id":"1_1_2_3","properties":{"landcover":1,"random":0.9320065899650734}},{"type":"Feature","geometry":{"type":"Point","coordinates":[110.38777438813575,-7.7541367470865135]},"id":"1_1_2_4","properties":{"landcover":1,"random":0.7459131440756207}},{"type":"Feature","geometry":{"type":"Point","coordinates":[110.43975416769563,-7.609119841341863]},"id":"1_1_2_5","properties":{"landcover":1,"random":0.8982030447268557}},{"type":"Feature","geometry":{"type":"Point","coordinates":[110.43587032904206,-7.60473520911696]},"id":"1_1_2_6","properties":{"landcover":1,"random":0.5732901158898307}},{"type":"Feature","geometry":{"type":"Point","coordinates":[110.45738471517572,-7.608856201343887]},"id":"1_1_2_7","properties":{"landcover":1,"random":0.3070791204481498}},{"type":"Feature","geometry":{"type":"Point","coordinates":[110.46005619535455,-7.608957227842961]},"id":"1_1_2_8","properties":{"landcover":1,"random":0.028346730675161802}},{"type":"Feature","geometry":{"type":"Point","coordinates":[110.44612729888816,-7.546294972524353]},"id":"1_1_2_9","properties":{"landcover":1,"random":0.6254448876352168}},{"type":"Feature","geometry":{"type":"Point","coordinates":[110.39889543515305,-7.5961220013295305]},"id":"1_1_2_10","properties":{"landcover":1,"random":0.3432578589891465}},{"type":"Feature","geometry":{"type":"Point","coordinates":[110.50154206381114,-7.8181616818270365]},"id":"1_1_2_11","properties":{"landcover":1,"random":0.11897115778202005}},{"type":"Feature","geometry":{"type":"Point","coordinates":[110.50735709295542,-7.8133360384096955]},"id":"1_1_2_12","properties":{"landcover":1,"random":0.6008102535497464}},{"type":"Feature","geometry":{"type":"Point","coordinates":[110.29010603470337,-7.747262719140539]},"id":"1_1_2_13","properties":{"landcover":1,"random":0.4196743448360237}},{"type":"Feature","geometry":{"type":"Point","coordinates":[110.26903460068237,-7.7393944309150315]},"id":"1_1_2_14","properties":{"landcover":1,"random":0.6207332668395601}},{"type":"Feature","geometry":{"type":"Point","coordinates":[110.35851439803501,-7.719576465616851]},"id":"1_1_2_15","properties":{"landcover":1,"random":0.005818765217786681}},{"type":"Feature","geometry":{"type":"Point","coordinates":[110.36061724990269,-7.720969203512375]},"id":"1_1_2_16","properties":{"landcover":1,"random":0.15605660554685075}},{"type":"Feature","geometry":{"type":"Point","coordinates":[110.34857968945936,-7.718360171414055]},"id":"1_1_2_17","properties":{"landcover":1,"random":0.8606904415364971}},{"type":"Feature","geometry":{"type":"Point","coordinates":[110.34948463086054,-7.7201317528872035]},"id":"1_1_2_18","properties":{"landcover":1,"random":0.9813986352149398}},{"type":"Feature","geometry":{"type":"Point","coordinates":[110.3344633077175,-7.721880150020526]},"id":"1_1_2_19","properties":{"landcover":1,"random":0.6278690976703872}},{"type":"Feature","geometry":{"type":"Point","coordinates":[110.35007785621147,-7.710172162355736]},"id":"1_1_2_20","properties":{"landcover":1,"random":0.3672410624549065}},{"type":"Feature","geometry":{"type":"Point","coordinates":[110.3490049726055,-7.710193426037019]},"id":"1_1_2_21","properties":{"landcover":1,"random":0.7087880034637476}},{"type":"Feature","geometry":{"type":"Point","coordinates":[110.29209307490807,-7.748353350142141]},"id":"1_1_2_22","properties":{"landcover":1,"random":0.9007270522536354}},{"type":"Feature","geometry":{"type":"Point","coordinates":[110.28082779704553,-7.748801761314953]},"id":"1_1_2_23","properties":{"landcover":1,"random":0.8768188642130532}},{"type":"Feature","geometry":{"type":"Point","coordinates":[110.28273157800868,-7.746697562183886]},"id":"1_1_2_24","properties":{"landcover":1,"random":0.8070771345321734}},{"type":"Feature","geometry":{"type":"Point","coordinates":[110.4826670161461,-7.758552519398688]},"id":"1_1_2_25","properties":{"landcover":1,"random":0.26334981035211336}},{"type":"Feature","geometry":{"type":"Point","coordinates":[110.47187521795604,-7.748201894367296]},"id":"1_1_2_26","properties":{"landcover":1,"random":0.8771897919097668}},{"type":"Feature","geometry":{"type":"Point","coordinates":[110.44911972946245,-7.734452972651023]},"id":"1_1_2_27","properties":{"landcover":1,"random":0.6824612071089942}},{"type":"Feature","geometry":{"type":"Point","coordinates":[110.43549407132035,-7.731093935869436]},"id":"1_1_2_28","properties":{"landcover":1,"random":0.10406144292461328}},{"type":"Feature","geometry":{"type":"Point","coordinates":[110.37665294207511,-7.653874840293498]},"id":"1_1_2_29","properties":{"landcover":1,"random":0.5856351345249495}},{"type":"Feature","geometry":{"type":"Point","coordinates":[110.47073822308225,-7.766811679889413]},"id":"1_1_2_30","properties":{"landcover":1,"random":0.4738245972942575}},{"type":"Feature","geometry":{"type":"Point","coordinates":[110.4840256491953,-7.763043605754246]},"id":"1_1_2_31","properties":{"landcover":1,"random":0.1876513657226837}},{"type":"Feature","geometry":{"type":"Point","coordinates":[110.38861898198078,-7.6904663404222635]},"id":"1_2_0","properties":{"landcover":2,"random":0.3025280642800585}},{"type":"Feature","geometry":{"type":"Point","coordinates":[110.38314041491358,-7.769030449351265]},"id":"1_2_1","properties":{"landcover":2,"random":0.8375540141622829}},{"type":"Feature","geometry":{"type":"Point","coordinates":[110.4137157826776,-7.755027033917403]},"id":"1_2_2","properties":{"landcover":2,"random":0.14120353121783613}},{"type":"Feature","geometry":{"type":"Point","coordinates":[110.41513124602913,-7.757173217837544]},"id":"1_2_3","properties":{"landcover":2,"random":0.3232271052896023}},{"type":"Feature","geometry":{"type":"Point","coordinates":[110.33698701866898,-7.749993348063097]},"id":"1_2_4","properties":{"landcover":2,"random":0.5114915061350188}},{"type":"Feature","geometry":{"type":"Point","coordinates":[110.34000134868302,-7.745641387562042]},"id":"1_2_5","properties":{"landcover":2,"random":0.07629400311158308}},{"type":"Feature","geometry":{"type":"Point","coordinates":[110.37440798843397,-7.7392974454020615]},"id":"1_2_6","properties":{"landcover":2,"random":0.08139179825801668}},{"type":"Feature","geometry":{"type":"Point","coordinates":[110.41346649370486,-7.754180973242051]},"id":"1_2_7","properties":{"landcover":2,"random":0.3490088428305418}},{"type":"Feature","geometry":{"type":"Point","coordinates":[110.41418532572085,-7.7541490810443445]},"id":"1_2_8","properties":{"landcover":2,"random":0.8055033740050577}},{"type":"Feature","geometry":{"type":"Point","coordinates":[110.41324753813802,-7.754614335920772]},"id":"1_2_9","properties":{"landcover":2,"random":0.9239999654349698}},{"type":"Feature","geometry":{"type":"Point","coordinates":[110.41429359965383,-7.75455055158864]},"id":"1_2_10","properties":{"landcover":2,"random":0.7237592290463881}},{"type":"Feature","geometry":{"type":"Point","coordinates":[110.41326855791282,-7.755591384705236]},"id":"1_2_11","properties":{"landcover":2,"random":0.03504585343397415}},{"type":"Feature","geometry":{"type":"Point","coordinates":[110.41308080328177,-7.755835890654361]},"id":"1_2_12","properties":{"landcover":2,"random":0.8631618314234037}},{"type":"Feature","geometry":{"type":"Point","coordinates":[110.41350995672417,-7.7560006663225405]},"id":"1_2_13","properties":{"landcover":2,"random":0.47537279822790135}},{"type":"Feature","geometry":{"type":"Point","coordinates":[110.41426097524834,-7.755352193965334]},"id":"1_2_14","properties":{"landcover":2,"random":0.7605028537404612}},{"type":"Feature","geometry":{"type":"Point","coordinates":[110.41466867101859,-7.755070480252803]},"id":"1_2_15","properties":{"landcover":2,"random":0.39789635313847105}},{"type":"Feature","geometry":{"type":"Point","coordinates":[110.41501199377251,-7.755814629273126]},"id":"1_2_16","properties":{"landcover":2,"random":0.33549254159556674}},{"type":"Feature","geometry":{"type":"Point","coordinates":[110.41534995210837,-7.7554425549275]},"id":"1_2_17","properties":{"landcover":2,"random":0.7855031042329128}},{"type":"Feature","geometry":{"type":"Point","coordinates":[110.4155246222285,-7.75750923859638]},"id":"1_2_18","properties":{"landcover":2,"random":0.1507498736166245}},{"type":"Feature","geometry":{"type":"Point","coordinates":[110.42062236538567,-7.760425054270315]},"id":"1_2_19","properties":{"landcover":2,"random":0.7393925783813353}},{"type":"Feature","geometry":{"type":"Point","coordinates":[110.42069344392456,-7.760507441213438]},"id":"1_2_20","properties":{"landcover":2,"random":0.24898988425451785}},{"type":"Feature","geometry":{"type":"Point","coordinates":[110.37475171192385,-7.739459154385193]},"id":"1_2_21","properties":{"landcover":2,"random":0.9570799571324975}},{"type":"Feature","geometry":{"type":"Point","coordinates":[110.21954319557982,-7.754306455989412]},"id":"1_2_22","properties":{"landcover":2,"random":0.2830017106515761}},{"type":"Feature","geometry":{"type":"Point","coordinates":[110.21859905800656,-7.752818151297917]},"id":"1_2_23","properties":{"landcover":2,"random":0.06369648157638741}},{"type":"Feature","geometry":{"type":"Point","coordinates":[110.22309581983689,-7.779267394148358]},"id":"1_2_24","properties":{"landcover":2,"random":0.6521287133588956}},{"type":"Feature","geometry":{"type":"Point","coordinates":[110.22421161878708,-7.781010726489055]},"id":"1_2_25","properties":{"landcover":2,"random":0.487995425441627}},{"type":"Feature","geometry":{"type":"Point","coordinates":[110.33816712400957,-7.729353359770645]},"id":"1_2_26","properties":{"landcover":2,"random":0.4299019416287386}},{"type":"Feature","geometry":{"type":"Point","coordinates":[110.33826368353412,-7.728938736588082]},"id":"1_2_27","properties":{"landcover":2,"random":0.3239941523622417}},{"type":"Feature","geometry":{"type":"Point","coordinates":[110.3384782602553,-7.72834337951122]},"id":"1_2_28","properties":{"landcover":2,"random":0.5631291337772033}},{"type":"Feature","geometry":{"type":"Point","coordinates":[110.33840852282091,-7.728540060066969]},"id":"1_2_29","properties":{"landcover":2,"random":0.0021023633856147583}},{"type":"Feature","geometry":{"type":"Point","coordinates":[110.38350444518123,-7.7669148278126725]},"id":"2_0","properties":{"landcover":3,"random":0.31129849113778685}},{"type":"Feature","geometry":{"type":"Point","coordinates":[110.37940138986691,-7.766611561916186]},"id":"2_1","properties":{"landcover":3,"random":0.16324343412744569}},{"type":"Feature","geometry":{"type":"Point","coordinates":[110.37515510604719,-7.766671624090623]},"id":"2_2","properties":{"landcover":3,"random":0.9263448704365854}},{"type":"Feature","geometry":{"type":"Point","coordinates":[110.37123196956568,-7.762111150731577]},"id":"2_3","properties":{"landcover":3,"random":0.9900162569847569}},{"type":"Feature","geometry":{"type":"Point","coordinates":[110.35652050939353,-7.758782721047083]},"id":"2_4","properties":{"landcover":3,"random":0.07279986281944262}},{"type":"Feature","geometry":{"type":"Point","coordinates":[110.35133848157676,-7.761865588347424]},"id":"2_5","properties":{"landcover":3,"random":0.28334877164274663}},{"type":"Feature","geometry":{"type":"Point","coordinates":[110.4472113505974,-7.6954232308272035]},"id":"2_6","properties":{"landcover":3,"random":0.743544848189693}},{"type":"Feature","geometry":{"type":"Point","coordinates":[110.45012959400562,-7.693488163995258]},"id":"2_7","properties":{"landcover":3,"random":0.5976978713632022}},{"type":"Feature","geometry":{"type":"Point","coordinates":[110.43069619350759,-7.605441488052616]},"id":"2_8","properties":{"landcover":3,"random":0.6520703518638579}},{"type":"Feature","geometry":{"type":"Point","coordinates":[110.46845179082203,-7.811283579230974]},"id":"2_9","properties":{"landcover":3,"random":0.003995509769508243}},{"type":"Feature","geometry":{"type":"Point","coordinates":[110.4295579821166,-7.797943614647875]},"id":"2_10","properties":{"landcover":3,"random":0.01756196245541386}},{"type":"Feature","geometry":{"type":"Point","coordinates":[110.33864250579515,-7.730204656105245]},"id":"2_11","properties":{"landcover":3,"random":0.8199939859985836}},{"type":"Feature","geometry":{"type":"Point","coordinates":[110.34505354853975,-7.729718915341304]},"id":"2_12","properties":{"landcover":3,"random":0.9062434158396498}},{"type":"Feature","geometry":{"type":"Point","coordinates":[110.3448443362366,-7.7295381823657365]},"id":"2_13","properties":{"landcover":3,"random":0.47465928226407716}},{"type":"Feature","geometry":{"type":"Point","coordinates":[110.33184107386207,-7.720752423377093]},"id":"2_14","properties":{"landcover":3,"random":0.43378372177388913}},{"type":"Feature","geometry":{"type":"Point","coordinates":[110.34057213363059,-7.710654499337894]},"id":"2_15","properties":{"landcover":3,"random":0.0711221870320754}},{"type":"Feature","geometry":{"type":"Point","coordinates":[110.36309078378689,-7.71291991422727]},"id":"2_16","properties":{"landcover":3,"random":0.8472757261933646}},{"type":"Feature","geometry":{"type":"Point","coordinates":[110.37693522508319,-7.716997645144639]},"id":"2_17","properties":{"landcover":3,"random":0.05879155691237781}},{"type":"Feature","geometry":{"type":"Point","coordinates":[110.39030009685848,-7.711640863833412]},"id":"2_18","properties":{"landcover":3,"random":0.5946639494648445}},{"type":"Feature","geometry":{"type":"Point","coordinates":[110.39563740564694,-7.708791530767205]},"id":"2_19","properties":{"landcover":3,"random":0.5058766177293992}},{"type":"Feature","geometry":{"type":"Point","coordinates":[110.39619530512205,-7.708961640742427]},"id":"2_20","properties":{"landcover":3,"random":0.04620449936418758}},{"type":"Feature","geometry":{"type":"Point","coordinates":[110.40865968373014,-7.714950704492233]},"id":"2_21","properties":{"landcover":3,"random":0.41195285303607054}},{"type":"Feature","geometry":{"type":"Point","coordinates":[110.40906737950039,-7.715227129143267]},"id":"2_22","properties":{"landcover":3,"random":0.01009819936160361}},{"type":"Feature","geometry":{"type":"Point","coordinates":[110.41192124989223,-7.7155035536136145]},"id":"2_23","properties":{"landcover":3,"random":0.822177221269356}},{"type":"Feature","geometry":{"type":"Point","coordinates":[110.41183541920375,-7.715950085068672]},"id":"2_24","properties":{"landcover":3,"random":0.35052485903990005}},{"type":"Feature","geometry":{"type":"Point","coordinates":[110.41172813084316,-7.716715566466067]},"id":"2_25","properties":{"landcover":3,"random":0.03141910052890484}},{"type":"Feature","geometry":{"type":"Point","coordinates":[110.41310142185878,-7.7173322032506375]},"id":"2_26","properties":{"landcover":3,"random":0.7046206737217797}},{"type":"Feature","geometry":{"type":"Point","coordinates":[110.41292976048184,-7.71631156256791]},"id":"2_27","properties":{"landcover":3,"random":0.16022190334861475}},{"type":"Feature","geometry":{"type":"Point","coordinates":[110.41745629188188,-7.7217577873866325]},"id":"2_28","properties":{"landcover":3,"random":0.08357000208327425}},{"type":"Feature","geometry":{"type":"Point","coordinates":[110.41775669929153,-7.722097996837882]},"id":"2_29","properties":{"landcover":3,"random":0.24077889816097797}},{"type":"Feature","geometry":{"type":"Point","coordinates":[110.41174855109817,-7.722480732143116]},"id":"2_30","properties":{"landcover":3,"random":0.2959341196926655}},{"type":"Feature","geometry":{"type":"Point","coordinates":[110.41222061988479,-7.722225575311478]},"id":"2_31","properties":{"landcover":3,"random":0.39075538034592017}},{"type":"Feature","geometry":{"type":"Point","coordinates":[110.42476802247326,-7.724110384946256]},"id":"2_32","properties":{"landcover":3,"random":0.043475024872749124}},{"type":"Feature","geometry":{"type":"Point","coordinates":[110.42562632935802,-7.72428048875891]},"id":"2_33","properties":{"landcover":3,"random":0.2539706111531136}},{"type":"Feature","geometry":{"type":"Point","coordinates":[110.41589163235727,-7.741411264230872]},"id":"2_34","properties":{"landcover":3,"random":0.9376931079453213}},{"type":"Feature","geometry":{"type":"Point","coordinates":[110.41516207150522,-7.742219223600498]},"id":"2_35","properties":{"landcover":3,"random":0.957152745861105}},{"type":"Feature","geometry":{"type":"Point","coordinates":[110.41490457943979,-7.73769037872449]},"id":"2_36","properties":{"landcover":3,"random":0.21914493131176427}},{"type":"Feature","geometry":{"type":"Point","coordinates":[110.41496895245615,-7.738455820711564]},"id":"2_37","properties":{"landcover":3,"random":0.6977757905931535}},{"type":"Feature","geometry":{"type":"Point","coordinates":[110.40253698725462,-7.7409222354389025]},"id":"2_38","properties":{"landcover":3,"random":0.46279547173278923}},{"type":"Feature","geometry":{"type":"Point","coordinates":[110.40253698725462,-7.739965438335411]},"id":"2_39","properties":{"landcover":3,"random":0.34223135743405253}},{"type":"Feature","geometry":{"type":"Point","coordinates":[110.38464128870727,-7.738051837613762]},"id":"2_40","properties":{"landcover":3,"random":0.8388802988733947}},{"type":"Feature","geometry":{"type":"Point","coordinates":[110.38425505060911,-7.7386259187422235]},"id":"2_41","properties":{"landcover":3,"random":0.18912822123151463}},{"type":"Feature","geometry":{"type":"Point","coordinates":[110.38328945536377,-7.7389023278956595]},"id":"2_42","properties":{"landcover":3,"random":0.790244896210157}},{"type":"Feature","geometry":{"type":"Point","coordinates":[110.38320362467528,-7.739752816461924]},"id":"2_43","properties":{"landcover":3,"random":0.3995100693234639}},{"type":"Feature","geometry":{"type":"Point","coordinates":[110.4363790980813,-7.6270701693924625]},"id":"2_44","properties":{"landcover":3,"random":0.12205083166723218}},{"type":"Feature","geometry":{"type":"Point","coordinates":[110.4374948970315,-7.6278358107629884]},"id":"2_45","properties":{"landcover":3,"random":0.2364488933869584}},{"type":"Feature","geometry":{"type":"Point","coordinates":[110.43925442614527,-7.629707372788978]},"id":"2_46","properties":{"landcover":3,"random":0.811157392941904}},{"type":"Feature","geometry":{"type":"Point","coordinates":[110.45255818285915,-7.629834978992556]},"id":"2_47","properties":{"landcover":3,"random":0.2089066512344293}},{"type":"Feature","geometry":{"type":"Point","coordinates":[110.35940224882933,-7.699297146188088]},"id":"2_48","properties":{"landcover":3,"random":0.6297014420508235}},{"type":"Feature","geometry":{"type":"Point","coordinates":[110.35832936522337,-7.700105186075743]},"id":"2_49","properties":{"landcover":3,"random":0.32973676774487815}}]}